OBJECT B                
1 51825U 22019B   25189.90268516  .00014241  00000+0  34143-3 0  9996
2 51825  97.3850 266.8518 0008248 306.5810  53.4677 15.41477741186419
